{
  "type": "FeatureCollection",
  "features": [
    {
      "type": "Feature",
      "properties": {
        "norad_id": 66975,
        "name": "STARLINK-35777",
        "group": "last-30-days",
        "lat": -3.476308832267226,
        "lon": 86.65834833118322,
        "alt_km": 372.36071377147255,
        "timestamp": "2025-12-25T07:41:08.451365+00:00",
        "meta_object_name": "STARLINK-35777",
        "meta_object_id": "2025-288S",
        "meta_epoch": "2025-12-24T22:00:03.000096",
        "meta_mean_motion": 15.67072536,
        "meta_eccentricity": 0.00014239,
        "meta_inclination": 43.0004,
        "meta_ra_of_asc_node": 92.8127,
        "meta_arg_of_pericenter": 271.6667,
        "meta_mean_anomaly": 325.3335,
        "meta_ephemeris_type": 0,
        "meta_classification_type": "U",
        "meta_norad_cat_id": 66975,
        "meta_element_set_no": 999,
        "meta_rev_at_epoch": 378,
        "meta_bstar": -0.021207928,
        "meta_mean_motion_dot": -0.02044219,
        "meta_mean_motion_ddot": 0,
        "tle_line1": "1 66975U 25288S   25358.91670139 -.02044219  00000+0 -21208-1 0  9994",
        "tle_line2": "2 66975  43.0004  92.8127 0001423 271.6667 325.3335 15.67072536  3784"
      },
      "geometry": {
        "type": "Point",
        "coordinates": [
          86.65834833118322,
          -3.476308832267226
        ]
      }
    },
    {
      "type": "Feature",
      "properties": {
        "norad_id": 66976,
        "name": "STARLINK-35772",
        "group": "last-30-days",
        "lat": -40.08654811342832,
        "lon": -23.868427054283572,
        "alt_km": 437.33969398223326,
        "timestamp": "2025-12-25T07:41:08.451378+00:00",
        "meta_object_name": "STARLINK-35772",
        "meta_object_id": "2025-288T",
        "meta_epoch": "2025-12-24T22:00:03.000096",
        "meta_mean_motion": 15.45681474,
        "meta_eccentricity": 0.00012757,
        "meta_inclination": 43.0001,
        "meta_ra_of_asc_node": 93.886,
        "meta_arg_of_pericenter": 281.586,
        "meta_mean_anomaly": 242.5327,
        "meta_ephemeris_type": 0,
        "meta_classification_type": "U",
        "meta_norad_cat_id": 66976,
        "meta_element_set_no": 999,
        "meta_rev_at_epoch": 378,
        "meta_bstar": -0.050793371,
        "meta_mean_motion_dot": -0.02210503,
        "meta_mean_motion_ddot": 0,
        "tle_line1": "1 66976U 25288T   25358.91670139 -.02210503  00000+0 -50793-1 0  9997",
        "tle_line2": "2 66976  43.0001  93.8860 0001275 281.5860 242.5327 15.45681474  3781"
      },
      "geometry": {
        "type": "Point",
        "coordinates": [
          -23.868427054283572,
          -40.08654811342832
        ]
      }
    },
    {
      "type": "Feature",
      "properties": {
        "norad_id": 66977,
        "name": "STARLINK-35770",
        "group": "last-30-days",
        "lat": -2.171686207325089,
        "lon": 88.06006278949053,
        "alt_km": 372.2431492977257,
        "timestamp": "2025-12-25T07:41:08.451390+00:00",
        "meta_object_name": "STARLINK-35770",
        "meta_object_id": "2025-288U",
        "meta_epoch": "2025-12-24T22:00:03.000096",
        "meta_mean_motion": 15.6707163,
        "meta_eccentricity": 0.00014069,
        "meta_inclination": 43.0005,
        "meta_ra_of_asc_node": 92.8089,
        "meta_arg_of_pericenter": 271.0945,
        "meta_mean_anomaly": 327.821,
        "meta_ephemeris_type": 0,
        "meta_classification_type": "U",
        "meta_norad_cat_id": 66977,
        "meta_element_set_no": 999,
        "meta_rev_at_epoch": 378,
        "meta_bstar": -0.021167824,
        "meta_mean_motion_dot": -0.02040753,
        "meta_mean_motion_ddot": 0,
        "tle_line1": "1 66977U 25288U   25358.91670139 -.02040753  00000+0 -21168-1 0  9990",
        "tle_line2": "2 66977  43.0005  92.8089 0001406 271.0945 327.8210 15.67071630  3781"
      },
      "geometry": {
        "type": "Point",
        "coordinates": [
          88.06006278949053,
          -2.171686207325089
        ]
      }
    },
    {
      "type": "Feature",
      "properties": {
        "norad_id": 66978,
        "name": "STARLINK-35787",
        "group": "last-30-days",
        "lat": 1.7487854365020379,
        "lon": 92.25480669805617,
        "alt_km": 371.85622247124957,
        "timestamp": "2025-12-25T07:41:08.451400+00:00",
        "meta_object_name": "STARLINK-35787",
        "meta_object_id": "2025-288V",
        "meta_epoch": "2025-12-24T22:00:03.000096",
        "meta_mean_motion": 15.67069359,
        "meta_eccentricity": 0.00013962,
        "meta_inclination": 43.0007,
        "meta_ra_of_asc_node": 92.7938,
        "meta_arg_of_pericenter": 270.6296,
        "meta_mean_anomaly": 334.0388,
        "meta_ephemeris_type": 0,
        "meta_classification_type": "U",
        "meta_norad_cat_id": 66978,
        "meta_element_set_no": 999,
        "meta_rev_at_epoch": 378,
        "meta_bstar": -0.021141285,
        "meta_mean_motion_dot": -0.02038336,
        "meta_mean_motion_ddot": 0,
        "tle_line1": "1 66978U 25288V   25358.91670139 -.02038336  00000+0 -21141-1 0  9996",
        "tle_line2": "2 66978  43.0007  92.7938 0001396 270.6296 334.0388 15.67069359  3789"
      },
      "geometry": {
        "type": "Point",
        "coordinates": [
          92.25480669805617,
          1.7487854365020379
        ]
      }
    },
    {
      "type": "Feature",
      "properties": {
        "norad_id": 66979,
        "name": "STARLINK-36107",
        "group": "last-30-days",
        "lat": 3.0550360406797727,
        "lon": 93.65565471949192,
        "alt_km": 371.6989360539246,
        "timestamp": "2025-12-25T07:41:08.451412+00:00",
        "meta_object_name": "STARLINK-36107",
        "meta_object_id": "2025-288W",
        "meta_epoch": "2025-12-24T22:00:03.000096",
        "meta_mean_motion": 15.67068997,
        "meta_eccentricity": 0.0001399,
        "meta_inclination": 43.0008,
        "meta_ra_of_asc_node": 92.7889,
        "meta_arg_of_pericenter": 271.5915,
        "meta_mean_anomaly": 334.996,
        "meta_ephemeris_type": 0,
        "meta_classification_type": "U",
        "meta_norad_cat_id": 66979,
        "meta_element_set_no": 999,
        "meta_rev_at_epoch": 378,
        "meta_bstar": -0.021156992,
        "meta_mean_motion_dot": -0.02039638,
        "meta_mean_motion_ddot": 0,
        "tle_line1": "1 66979U 25288W   25358.91670139 -.02039638  00000+0 -21157-1 0  9990",
        "tle_line2": "2 66979  43.0008  92.7889 0001399 271.5915 334.9960 15.67068997  3789"
      },
      "geometry": {
        "type": "Point",
        "coordinates": [
          93.65565471949192,
          3.0550360406797727
        ]
      }
    },
    {
      "type": "Feature",
      "properties": {
        "norad_id": 66980,
        "name": "STARLINK-36086",
        "group": "last-30-days",
        "lat": 4.358309292358628,
        "lon": 95.05869629700229,
        "alt_km": 371.5400296538837,
        "timestamp": "2025-12-25T07:41:08.451422+00:00",
        "meta_object_name": "STARLINK-36086",
        "meta_object_id": "2025-288X",
        "meta_epoch": "2025-12-24T22:00:03.000096",
        "meta_mean_motion": 15.67070723,
        "meta_eccentricity": 0.00013948,
        "meta_inclination": 43.0007,
        "meta_ra_of_asc_node": 92.784,
        "meta_arg_of_pericenter": 271.9348,
        "meta_mean_anomaly": 336.5651,
        "meta_ephemeris_type": 0,
        "meta_classification_type": "U",
        "meta_norad_cat_id": 66980,
        "meta_element_set_no": 999,
        "meta_rev_at_epoch": 378,
        "meta_bstar": -0.021139324,
        "meta_mean_motion_dot": -0.02038269,
        "meta_mean_motion_ddot": 0,
        "tle_line1": "1 66980U 25288X   25358.91670139 -.02038269  00000+0 -21139-1 0  9991",
        "tle_line2": "2 66980  43.0007  92.7840 0001394 271.9348 336.5651 15.67070723  3781"
      },
      "geometry": {
        "type": "Point",
        "coordinates": [
          95.05869629700229,
          4.358309292358628
        ]
      }
    },
    {
      "type": "Feature",
      "properties": {
        "norad_id": 66981,
        "name": "STARLINK-36142",
        "group": "last-30-days",
        "lat": 5.660875235821577,
        "lon": 96.46905982913944,
        "alt_km": 371.4181583420377,
        "timestamp": "2025-12-25T07:41:08.451432+00:00",
        "meta_object_name": "STARLINK-36142",
        "meta_object_id": "2025-288Y",
        "meta_epoch": "2025-12-24T22:00:03.000096",
        "meta_mean_motion": 15.67070122,
        "meta_eccentricity": 0.00014843,
        "meta_inclination": 43.0005,
        "meta_ra_of_asc_node": 92.7794,
        "meta_arg_of_pericenter": 271.5023,
        "meta_mean_anomaly": 338.9168,
        "meta_ephemeris_type": 0,
        "meta_classification_type": "U",
        "meta_norad_cat_id": 66981,
        "meta_element_set_no": 999,
        "meta_rev_at_epoch": 378,
        "meta_bstar": -0.021152498,
        "meta_mean_motion_dot": -0.02039411,
        "meta_mean_motion_ddot": 0,
        "tle_line1": "1 66981U 25288Y   25358.91670139 -.02039411  00000+0 -21152-1 0  9997",
        "tle_line2": "2 66981  43.0005  92.7794 0001484 271.5023 338.9168 15.67070122  3786"
      },
      "geometry": {
        "type": "Point",
        "coordinates": [
          96.46905982913944,
          5.660875235821577
        ]
      }
    }
  ]
}